SHIYAN-1 (SY-1)         
1 28220U 04012A   26068.73650539  .00016393  00000+0  54854-3 0  9991
2 28220  97.8764 140.5238 0005873  23.6952 336.4557 15.31043463195862
STARLINK-2635           
1 48355U 21038C   26068.18266529 -.00004038  00000+0 -12431-3 0  9990
2 48355  53.1597   0.4872 0001105 106.6604 253.4518 15.30190803267001
